CTC1_L_00352016-03
1 56701U 25645SR  26070.40835648  .00000000  00000+0  00000-0 0  9993
2 56701  55.0000 180.0000 0000000   0.0000   0.0000 13.72670257    11
CTC1_L_00352016-04
1 56702U 24740LM  26070.40835648  .00000000  00000+0  00000-0 0  9999
2 56702  55.0000 180.0000 0000000   0.0000  90.0000 13.72670257    11
CTC1_L_00352017-01
1 56703U 25493TA  26070.40835648  .00000000  00000+0  00000-0 0  9996
2 56703  55.0000 192.0000 0000000   0.0000 192.0000 13.72670257    18
CTC1_L_00352017-02
1 56704U 22453PN  26070.40835648  .00000000  00000+0  00000-0 0  9990
2 56704  55.0000 192.0000 0000000   0.0000 282.0000 13.72670257    19
CTC1_L_00352017-03
1 56705U 24153HQ  26070.40835648  .00000000  00000+0  00000-0 0  9990
2 56705  55.0000 192.0000 0000000   0.0000  12.0000 13.72670257    11
CTC1_L_00352017-04
1 56706U 22872ZJ  26070.40835648  .00000000  00000+0  00000-0 0  9997
2 56706  55.0000 192.0000 0000000   0.0000 102.0000 13.72670257    12
CTC1_L_00352018-01
1 56707U 23993YY  26070.40835648  .00000000  00000+0  00000-0 0  9993
2 56707  55.0000 204.0000 0000000   0.0000 204.0000 13.72670257    10
CTC1_L_00352018-02
1 56708U 26455OS  26070.40835648  .00000000  00000+0  00000-0 0  9990
2 56708  55.0000 204.0000 0000000   0.0000 294.0000 13.72670257    10
CTC1_L_00352018-03
1 56709U 25952JJ  26070.40835648  .00000000  00000+0  00000-0 0  9992
2 56709  55.0000 204.0000 0000000   0.0000  24.0000 13.72670257    12
CTC1_L_00352018-04
1 56710U 23630UV  26070.40835648  .00000000  00000+0  00000-0 0  9995
2 56710  55.0000 204.0000 0000000   0.0000 114.0000 13.72670257    14
CTC1_L_00352019-01
1 56711U 25253LF  26070.40835648  .00000000  00000+0  00000-0 0  9999
2 56711  55.0000 216.0000 0000000   0.0000 216.0000 13.72670257    11
CTC1_L_00352019-02
1 56712U 23848XZ  26070.40835648  .00000000  00000+0  00000-0 0  9998
2 56712  55.0000 216.0000 0000000   0.0000 306.0000 13.72670257    12
CTC1_L_00352019-03
1 56713U 22554JX  26070.40835648  .00000000  00000+0  00000-0 0  9992
2 56713  55.0000 216.0000 0000000   0.0000  36.0000 13.72670257    13
CTC1_L_00352019-04
1 56714U 26336EL  26070.40835648  .00000000  00000+0  00000-0 0  9995
2 56714  55.0000 216.0000 0000000   0.0000 126.0000 13.72670257    14
CTC1_L_00352020-01
1 56715U 26137LH  26070.40835648  .00000000  00000+0  00000-0 0  9995
2 56715  55.0000 228.0000 0000000   0.0000 228.0000 13.72670257    11
CTC1_L_00352020-02
1 56716U 22029VL  26070.40835648  .00000000  00000+0  00000-0 0  9992
2 56716  55.0000 228.0000 0000000   0.0000 318.0000 13.72670257    12
CTC1_L_00352020-03
1 56717U 26255OA  26070.40835648  .00000000  00000+0  00000-0 0  9998
2 56717  55.0000 228.0000 0000000   0.0000  48.0000 13.72670257    13
CTC1_L_00352020-04
1 56718U 22935HQ  26070.40835648  .00000000  00000+0  00000-0 0  9990
2 56718  55.0000 228.0000 0000000   0.0000 138.0000 13.72670257    14
CTC1_L_00352021-01
1 56719U 22776KO  26070.40835648  .00000000  00000+0  00000-0 0  9994
2 56719  55.0000 240.0000 0000000   0.0000 240.0000 13.72670257    13
CTC1_L_00352021-02
1 56720U 25800VR  26070.40835648  .00000000  00000+0  00000-0 0  9997
2 56720  55.0000 240.0000 0000000   0.0000 330.0000 13.72670257    15
CTC1_L_00352021-03
1 56721U 24137BY  26070.40835648  .00000000  00000+0  00000-0 0  9990
2 56721  55.0000 240.0000 0000000   0.0000  60.0000 13.72670257    16
CTC1_L_00352021-04
1 56722U 24011FZ  26070.40835648  .00000000  00000+0  00000-0 0  9992
2 56722  55.0000 240.0000 0000000   0.0000 150.0000 13.72670257    17
CTC1_L_00352022-01
1 56723U 24822UR  26070.40835648  .00000000  00000+0  00000-0 0  9993
2 56723  55.0000 252.0000 0000000   0.0000 252.0000 13.72670257    14
CTC1_L_00352022-02
1 56724U 24707GQ  26070.40835648  .00000000  00000+0  00000-0 0  9996
2 56724  55.0000 252.0000 0000000   0.0000 342.0000 13.72670257    15
CTC1_L_00352022-03
1 56725U 22936EA  26070.40835648  .00000000  00000+0  00000-0 0  9999
2 56725  55.0000 252.0000 0000000   0.0000  72.0000 13.72670257    16
CTC1_L_00352022-04
1 56726U 25596AX  26070.40835648  .00000000  00000+0  00000-0 0  9995
2 56726  55.0000 252.0000 0000000   0.0000 162.0000 13.72670257    17
CTC1_L_00352023-01
1 56727U 25458DV  26070.40835648  .00000000  00000+0  00000-0 0  9993
2 56727  55.0000 264.0000 0000000   0.0000 264.0000 13.72670257    14
CTC1_L_00352023-02
1 56728U 22167IA  26070.40835648  .00000000  00000+0  00000-0 0  9998
2 56728  55.0000 264.0000 0000000   0.0000 354.0000 13.72670257    15
CTC1_L_00352023-03
1 56729U 25085VG  26070.40835648  .00000000  00000+0  00000-0 0  9991
2 56729  55.0000 264.0000 0000000   0.0000  84.0000 13.72670257    16
CTC1_L_00352023-04
1 56730U 25725HR  26070.40835648  .00000000  00000+0  00000-0 0  9994
2 56730  55.0000 264.0000 0000000   0.0000 174.0000 13.72670257    18
CTC1_L_00352024-01
1 56731U 24650ET  26070.40835648  .00000000  00000+0  00000-0 0  9991
2 56731  55.0000 276.0000 0000000   0.0000 276.0000 13.72670257    15
CTC1_L_00352024-02
1 56732U 25965E   26070.40835648  .00000000  00000+0  00000-0 0  9992
2 56732  55.0000 276.0000 0000000   0.0000   6.0000 13.72670257    17
CTC1_L_00352024-03
1 56733U 26867RB  26070.40835648  .00000000  00000+0  00000-0 0  9995
2 56733  55.0000 276.0000 0000000   0.0000  96.0000 13.72670257    17
CTC1_L_00352024-04
1 56734U 23203XB  26070.40835648  .00000000  00000+0  00000-0 0  9997
2 56734  55.0000 276.0000 0000000   0.0000 186.0000 13.72670257    18
CTC1_L_00352025-01
1 56735U 22607NV  26070.40835648  .00000000  00000+0  00000-0 0  9995
2 56735  55.0000 288.0000 0000000   0.0000 288.0000 13.72670257    15
CTC1_L_00352025-02
1 56736U 22563JS  26070.40835648  .00000000  00000+0  00000-0 0  9997
2 56736  55.0000 288.0000 0000000   0.0000  18.0000 13.72670257    17
CTC1_L_00352025-03
1 56737U 23892GS  26070.40835648  .00000000  00000+0  00000-0 0  9994
2 56737  55.0000 288.0000 0000000   0.0000 108.0000 13.72670257    18
CTC1_L_00352025-04
1 56738U 22991BV  26070.40835648  .00000000  00000+0  00000-0 0  9994
2 56738  55.0000 288.0000 0000000   0.0000 198.0000 13.72670257    18
CTC1_L_00352026-01
1 56739U 25541JE  26070.40835648  .00000000  00000+0  00000-0 0  9999
2 56739  55.0000 300.0000 0000000   0.0000 300.0000 13.72670257    19
CTC1_L_00352026-02
1 56740U 25453AJ  26070.40835648  .00000000  00000+0  00000-0 0  9993
2 56740  55.0000 300.0000 0000000   0.0000  30.0000 13.72670257    11
CTC1_L_00352026-03
1 56741U 25564FY  26070.40835648  .00000000  00000+0  00000-0 0  9997
2 56741  55.0000 300.0000 0000000   0.0000 120.0000 13.72670257    12
CTC1_L_00352026-04
1 56742U 23072JV  26070.40835648  .00000000  00000+0  00000-0 0  9990
2 56742  55.0000 300.0000 0000000   0.0000 210.0000 13.72670257    13
CTC1_L_00352027-01
1 56743U 25404DP  26070.40835648  .00000000  00000+0  00000-0 0  9992
2 56743  55.0000 312.0000 0000000   0.0000 312.0000 13.72670257    10
CTC1_L_00352027-02
1 56744U 26259ZH  26070.40835648  .00000000  00000+0  00000-0 0  9992
2 56744  55.0000 312.0000 0000000   0.0000  42.0000 13.72670257    11
CTC1_L_00352027-03
1 56745U 26741DJ  26070.40835648  .00000000  00000+0  00000-0 0  9999
2 56745  55.0000 312.0000 0000000   0.0000 132.0000 13.72670257    12
CTC1_L_00352027-04
1 56746U 23665TK  26070.40835648  .00000000  00000+0  00000-0 0  9992
2 56746  55.0000 312.0000 0000000   0.0000 222.0000 13.72670257    13
CTC1_L_00352028-01
1 56747U 25667RS  26070.40835648  .00000000  00000+0  00000-0 0  9997
2 56747  55.0000 324.0000 0000000   0.0000 324.0000 13.72670257    10
CTC1_L_00352028-02
1 56748U 25962PE  26070.40835648  .00000000  00000+0  00000-0 0  9996
2 56748  55.0000 324.0000 0000000   0.0000  54.0000 13.72670257    11
CTC1_L_00352028-03
1 56749U 25832JF  26070.40835648  .00000000  00000+0  00000-0 0  9993
2 56749  55.0000 324.0000 0000000   0.0000 144.0000 13.72670257    12
CTC1_L_00352028-04
1 56750U 24910QB  26070.40835648  .00000000  00000+0  00000-0 0  9991
2 56750  55.0000 324.0000 0000000   0.0000 234.0000 13.72670257    14
CTC1_L_00352029-01
1 56751U 24291ZJ  26070.40835648  .00000000  00000+0  00000-0 0  9994
2 56751  55.0000 336.0000 0000000   0.0000 336.0000 13.72670257    11
CTC1_L_00352029-02
1 56752U 23488TR  26070.40835648  .00000000  00000+0  00000-0 0  9992
2 56752  55.0000 336.0000 0000000   0.0000  66.0000 13.72670257    12
CTC1_L_00352029-03
1 56753U 26162BK  26070.40835648  .00000000  00000+0  00000-0 0  9995
2 56753  55.0000 336.0000 0000000   0.0000 156.0000 13.72670257    13
CTC1_L_00352029-04
1 56754U 25087KT  26070.40835648  .00000000  00000+0  00000-0 0  9991
2 56754  55.0000 336.0000 0000000   0.0000 246.0000 13.72670257    14
CTC1_L_00352030-01
1 56755U 22313DD  26070.40835648  .00000000  00000+0  00000-0 0  9991
2 56755  55.0000 348.0000 0000000   0.0000 348.0000 13.72670257    11
CTC1_L_00352030-02
1 56756U 23621OL  26070.40835648  .00000000  00000+0  00000-0 0  9995
2 56756  55.0000 348.0000 0000000   0.0000  78.0000 13.72670257    12
CTC1_L_00352030-03
1 56757U 26158FP  26070.40835648  .00000000  00000+0  00000-0 0  9994
2 56757  55.0000 348.0000 0000000   0.0000 168.0000 13.72670257    13
CTC1_L_00352030-04
1 56758U 22082CZ  26070.40835648  .00000000  00000+0  00000-0 0  9997
2 56758  55.0000 348.0000 0000000   0.0000 258.0000 13.72670257    14
